{
    "links": {
        "self": "http://www.neowsapp.com/rest/v1/neo/3313738?api_key=iIulBulltgU6a56xZRHN4H3l9WmuAYTsLGpBGhQ2"
    },
    "id": "3313738",
    "neo_reference_id": "3313738",
    "name": "(2006 BY8)",
    "designation": "2006 BY8",
    "nasa_jpl_url": "http://ssd.jpl.nasa.gov/sbdb.cgi?sstr=3313738",
    "absolute_magnitude_h": 26.6,
    "estimated_diameter": {
        "kilometers": {
            "estimated_diameter_min": 0.0127219879,
            "estimated_diameter_max": 0.0284472297
        },
        "meters": {
            "estimated_diameter_min": 12.7219878539,
            "estimated_diameter_max": 28.4472296503
        },
        "miles": {
            "estimated_diameter_min": 0.0079050743,
            "estimated_diameter_max": 0.0176762835
        },
        "feet": {
            "estimated_diameter_min": 41.7388066307,
            "estimated_diameter_max": 93.330808926
        }
    },
    "is_potentially_hazardous_asteroid": false,
    "close_approach_data": [
        {
            "close_approach_date": "2005-12-18",
            "close_approach_date_full": "2005-Dec-18 10:41",
            "epoch_date_close_approach": 1134902460000,
            "relative_velocity": {
                "kilometers_per_second": "9.056637567",
                "kilometers_per_hour": "32603.8952411848",
                "miles_per_hour": "20258.7925736129"
            },
            "miss_distance": {
                "astronomical": "0.0885975186",
                "lunar": "34.4644347354",
                "kilometers": "13254000.069845382",
                "miles": "8235653.7510629916"
            },
            "orbiting_body": "Venus"
        },
        {
            "close_approach_date": "2006-01-21",
            "close_approach_date_full": "2006-Jan-21 11:15",
            "epoch_date_close_approach": 1137842100000,
            "relative_velocity": {
                "kilometers_per_second": "15.5545531895",
                "kilometers_per_hour": "55996.3914822187",
                "miles_per_hour": "34793.9800296042"
            },
            "miss_distance": {
                "astronomical": "0.006209253",
                "lunar": "2.415399417",
                "kilometers": "928891.02309111",
                "miles": "577186.117272918"
            },
            "orbiting_body": "Earth"
        },
        {
            "close_approach_date": "2006-01-21",
            "close_approach_date_full": "2006-Jan-21 14:06",
            "epoch_date_close_approach": 1137852360000,
            "relative_velocity": {
                "kilometers_per_second": "16.4252226638",
                "kilometers_per_hour": "59130.8015897804",
                "miles_per_hour": "36741.5805767166"
            },
            "miss_distance": {
                "astronomical": "0.0085368536",
                "lunar": "3.3208360504",
                "kilometers": "1277095.115061832",
                "miles": "793550.1070920016"
            },
            "orbiting_body": "Moon"
        }
    ],
    "orbital_data": {
        "orbit_id": "9",
        "orbit_determination_date": "2017-09-08 06:16:57",
        "first_observation_date": "2006-01-23",
        "last_observation_date": "2006-01-31",
        "data_arc_in_days": 8,
        "observations_used": 28,
        "orbit_uncertainty": "8",
        "minimum_orbit_intersection": ".000571596",
        "jupiter_tisserand_invariant": "3.119",
        "epoch_osculation": "2453761.5",
        "eccentricity": ".6761238534084593",
        "semi_major_axis": "2.472084648708626",
        "inclination": "2.677852154012345",
        "ascending_node_longitude": "301.2817261061245",
        "orbital_period": "1419.689706349862",
        "perihelion_distance": ".8006492500718523",
        "perihelion_argument": "121.8378497558333",
        "aphelion_distance": "4.143520047345399",
        "perihelion_time": "2453719.469949785065",
        "mean_anomaly": "10.65783460266058",
        "mean_motion": ".2535765374573218",
        "equinox": "J2000",
        "orbit_class": {
            "orbit_class_type": "APO",
            "orbit_class_description": "Near-Earth asteroid orbits which cross the Earth’s orbit similar to that of 1862 Apollo",
            "orbit_class_range": "a (semi-major axis) > 1.0 AU; q (perihelion) < 1.017 AU"
        }
    },
    "is_sentry_object": false
}